[{"OBJECT_NAME":"STARLINK-2329","OBJECT_ID":"2021-021P","EPOCH":"2026-03-09T17:20:52.132704","MEAN_MOTION":15.3017618,"ECCENTRICITY":0.00011565,"INCLINATION":53.1598,"RA_OF_ASC_NODE":255.3078,"ARG_OF_PERICENTER":80.1333,"MEAN_ANOMALY":279.9798,"EPHEMERIS_TYPE":0,"CLASSIFICATION_TYPE":"U","NORAD_CAT_ID":47873,"ELEMENT_SET_NO":999,"REV_AT_EPOCH":27642,"BSTAR":-0.00010686119,"MEAN_MOTION_DOT":-3.52e-5,"MEAN_MOTION_DDOT":0},{"OBJECT_NAME":"OV3-3","OBJECT_ID":"1966-070A","EPOCH":"2026-03-09T22:03:14.294880","MEAN_MOTION":13.42594145,"ECCENTRICITY":0.10245609,"INCLINATION":81.3241,"RA_OF_ASC_NODE":58.4456,"ARG_OF_PERICENTER":54.9014,"MEAN_ANOMALY":314.389,"EPHEMERIS_TYPE":0,"CLASSIFICATION_TYPE":"U","NORAD_CAT_ID":2389,"ELEMENT_SET_NO":999,"REV_AT_EPOCH":58563,"BSTAR":0.00080880724,"MEAN_MOTION_DOT":0.00018028,"MEAN_MOTION_DDOT":0}]
